COMMENT,ORIGINATOR,NORAD_CAT_ID,OBJECT_NAME,OBJECT_TYPE,CLASSIFICATION_TYPE,INTLDES,EPOCH,EPOCH_MICROSECONDS,MEAN_MOTION,ECCENTRICITY,INCLINATION,RA_OF_ASC_NODE,ARG_OF_PERICENTER,MEAN_ANOMALY,EPHEMERIS_TYPE,ELEMENT_SET_NO,REV_AT_EPOCH,BSTAR,MEAN_MOTION_DOT,MEAN_MOTION_DDOT,FILE,TLE_LINE0,TLE_LINE1,TLE_LINE2,OBJECT_ID,OBJECT_NUMBER,SEMIMAJOR_AXIS,PERIOD,APOGEE,PERIGEE
"GENERATED VIA SPACETRACK.ORG API","JSPOC","39395","COPPER","PAYLOAD","U","13064R","2016-01-14 17:12:16","384320","15.91975257","0.0013508","40.4817","211.9116","323.0476","36.9425","0","999","12114","0.00088668","0.00306559","4.137e-05","1980341","0 COPPER","1 39395U 13064R   16014.71685630  .00306559  41370-4  88668-3 0  9997","2 39395  40.4817 211.9116 0013508 323.0476  36.9425 15.91975257121147","2013-064R","39395","6674.892","90.453","305.774","287.741"
"GENERATED VIA SPACETRACK.ORG API","JSPOC","26629","SL-12 R/B(2)","ROCKET BODY","U","00077D","2016-01-14 17:13:16","398624","1.45598615","0.4363427","61.7556","201.8706","263.5019","82.2496","0","999","8029","0","1.78e-06","0","1980336","0 SL-12 R/B(2)","1 26629U 00077D   16014.71755091  .00000178  00000-0  00000+0 0  9991","2 26629  61.7556 201.8706 4363427 263.5019  82.2496  1.45598615 80290","2000-077D","26629","32882.412","989.020","40852.278","12156.277"
"GENERATED VIA SPACETRACK.ORG API","JSPOC","41183","ORBCOMM FM 118","PAYLOAD","U","15081E","2016-01-14 17:13:21","455616","14.77546942","0.002929","47.0067","247.481","143.8073","216.4569","0","999","350","-0.0078277","-0.00056679","0","1980389","0 ORBCOMM FM 118","1 41183U 15081E   16014.71760944 -.00056679  00000-0 -78277-2 0  9990","2 41183  47.0067 247.4810 0029290 143.8073 216.4569 14.77546942  3507","2015-081E","41183","7015.214","97.458","657.627","616.532"
"GENERATED VIA SPACETRACK.ORG API","JSPOC","41180","ORBCOMM FM 119","PAYLOAD","U","15081B","2016-01-14 17:15:10","374912","14.77933827","0.003125","46.9998","247.4997","133.4304","226.9653","0","999","349","-0.0023336","-0.00017313","0","1980392","0 ORBCOMM FM 119","1 41180U 15081B   16014.71887008 -.00017313  00000-0 -23336-2 0  9996","2 41180  46.9998 247.4997 0031250 133.4304 226.9653 14.77933827  3492","2015-081B","41180","7013.990","97.433","657.774","613.936"
"GENERATED VIA SPACETRACK.ORG API","JSPOC","41182","ORBCOMM FM 110","PAYLOAD","U","15081D","2016-01-14 17:15:46","958400","14.77235381","0.0028481","47.0039","247.4885","134.057","226.1875","0","999","349","-0.020515","-0.00145205","0","1980392","0 ORBCOMM FM 110","1 41182U 15081D   16014.71929350 -.00145205  00000-0 -20515-1 0  9992","2 41182  47.0039 247.4885 0028481 134.0570 226.1875 14.77235381  3490","2015-081D","41182","7016.201","97.479","658.049","618.083"
"GENERATED VIA SPACETRACK.ORG API","JSPOC","40315","COSMOS 2501 (GLONASS)","PAYLOAD","U","14075A","2016-01-14 17:16:20","44416","2.13101542","0.0018185","64.6889","323.4907","241.0804","156.9995","0","999","874","0","-3.2e-07","0","1980376","0 COSMOS 2501 (GLONASS)","1 40315U 14075A   16014.71967644 -.00000032  00000-0  00000+0 0  9991","2 40315  64.6889 323.4907 0018185 241.0804 156.9995  2.13101542  8748","2014-075A","40315","25508.060","675.734","19176.312","19083.539"
"GENERATED VIA SPACETRACK.ORG API","JSPOC","41181","ORBCOMM FM 105","PAYLOAD","U","15081C","2016-01-14 17:19:17","323392","14.76025984","0.0023818","47.0033","247.514","132.0207","227.423","0","999","350","-0.11413","-0.00748014","0","1980390","0 ORBCOMM FM 105","1 41181U 15081C   16014.72172828 -.00748014  00000-0 -11413+0 0  9994","2 41181  47.0033 247.5140 0023818 132.0207 227.4230 14.76025984  3508","2015-081C","41181","7020.033","97.559","658.618","625.177"
"GENERATED VIA SPACETRACK.ORG API","JSPOC","40723","FLOCK 1E 1","PAYLOAD","U","98067GF","2016-01-14 17:19:29","802144","15.69122522","0.000431","51.6391","99.0993","256.3001","240.0495","0","999","2883","0.00045638","0.00053833","0","1980296","0 FLOCK 1E 1","1 40723U 98067GF  16014.72187271  .00053833  00000-0  45638-3 0  9994","2 40723  51.6391  99.0993 0004310 256.3001 240.0495 15.69122522 28837","1998-067GF","40723","6739.545","91.771","364.315","358.505"
"GENERATED VIA SPACETRACK.ORG API","JSPOC","22207","COSMOS 2218","PAYLOAD","U","92073A","2016-01-14 17:21:01","547712","13.72844595","0.0033736","82.9208","73.832","135.4866","12.5916","0","999","16290","2.8125e-05","4.1e-07","0","1980319","0 COSMOS 2218","1 22207U 92073A   16014.72293458  .00000041  00000-0  28125-4 0  9993","2 22207  82.9208  73.8320 0033736 135.4866  12.5916 13.72844595162902","1992-073A","22207","7367.513","104.891","1014.233","964.523"
"GENERATED VIA SPACETRACK.ORG API","JSPOC","26720","BSAT-2A","PAYLOAD","U","01011B","2016-01-14 17:21:34","3008","0.99181017","0.0005836","2.969","71.0586","159.4895","291.7968","0","999","5421","0","-3.02e-06","0","1980336","0 BSAT-2A","1 26720U 01011B   16014.72331022 -.00000302  00000-0  00000+0 0  9997","2 26720   2.9690  71.0586 0005836 159.4895 291.7968  0.99181017 54215","2001-011B","26720","42473.312","1451.890","36119.965","36070.390"
"GENERATED VIA SPACETRACK.ORG API","JSPOC","8462","SL-6 R/B(2)","ROCKET BODY","U","75105D","2016-01-14 17:21:39","148128","1.98135145","0.7460221","61.7021","269.2495","254.0975","19.3072","0","999","28924","-0.00011715","6.78e-06","0","1980707","0 SL-6 R/B(2)","1  8462U 75105D   16014.72336977 +.00000678 +00000-0 -11715-3 0  9994","2  8462 061.7021 269.2495 7460221 254.0975 019.3072 01.98135145289244","1975-105D","8462","26776.932","726.776","40374.981","422.614"
"GENERATED VIA SPACETRACK.ORG API","JSPOC","28493","NANOSAT(1)","PAYLOAD","U","04049B","2016-01-14 17:21:40","109760","14.73083518","0.0004038","98.2731","70.7327","199.7323","160.3728","0","999","59444","5.9274e-05","3.29e-06","0","1980335","0 NANOSAT(1)","1 28493U 04049B   16014.72338090  .00000329  00000-0  59274-4 0  9992","2 28493  98.2731  70.7327 0004038 199.7323 160.3728 14.73083518594446","2004-049B","28493","7029.378","97.754","654.081","648.405"
"GENERATED VIA SPACETRACK.ORG API","JSPOC","23640","DELTA 2 R/B(1)","ROCKET BODY","U","95041B","2016-01-14 17:22:04","192896","13.27993584","0.028964","26.6751","103.3211","334.9495","194.1999","0","999","99322","3.1032e-05","1.24e-06","0","1980289","0 DELTA 2 R/B(1)","1 23640U 95041B   16014.72365964  .00000124  00000-0  31032-4 0  9998","2 23640  26.6751 103.3211 0289640 334.9495 194.1999 13.27993584993229","1995-041B","23640","7532.477","108.434","1372.513","936.172"
"GENERATED VIA SPACETRACK.ORG API","JSPOC","15952","COSMOS 1675","PAYLOAD","U","85071A","2016-01-14 17:22:47","75808","3.01945389","0.6647577","64.5919","223.8222","19.5601","357.0693","0","999","27154","-0.0014689","-9.31e-06","0","1980434","0 COSMOS 1675","1 15952U 85071A   16014.72415597 -.00000931  00000-0 -14689-2 0  9990","2 15952  64.5919 223.8222 6647577  19.5601 357.0693  3.01945389271547","1985-071A","15952","20220.081","476.907","27283.401","400.491"
"GENERATED VIA SPACETRACK.ORG API","JSPOC","22017","COSMOS 2196","PAYLOAD","U","92040A","2016-01-14 17:24:07","465824","2.00971513","0.7426187","61.7849","263.9711","214.1733","61.276","0","999","14826","-0.0016647","-1.131e-05","0","1980428","0 COSMOS 2196","1 22017U 92040A   16014.72508641 -.00001131  00000-0 -16647-2 0  9996","2 22017  61.7849 263.9711 7426187 214.1733  61.2760  2.00971513148265","1992-040A","22017","26524.396","716.519","39843.773","448.748"
"GENERATED VIA SPACETRACK.ORG API","JSPOC","37171","SL-6 R/B(2)","ROCKET BODY","U","10049B","2016-01-14 17:26:14","391744","2.04345938","0.7039316","64.8115","312.5384","280.2832","12.4918","0","999","3949","0","-6.17e-06","0","1980318","0 SL-6 R/B(2)","1 37171U 10049B   16014.72655546 -.00000617  00000-0  00000+0 0  9999","2 37171  64.8115 312.5384 7039316 280.2832  12.4918  2.04345938 39494","2010-049B","37171","26231.583","704.687","38318.688","1388.207"
"GENERATED VIA SPACETRACK.ORG API","JSPOC","11081","DELTA 1 R/B(+CAMEO)","ROCKET BODY","U","78098B","2016-01-14 17:26:15","186624","13.85597336","0.002868","99.6198","229.5606","203.3272","197.9581","0","999","72083","1.2638e-05","-3.3e-07","0","1980321","0 DELTA 1 R/B(+CAMEO)","1 11081U 78098B   16014.72656466 -.00000033  00000-0  12638-4 0  9998","2 11081  99.6198 229.5606 0028680 203.3272 197.9581 13.85597336720838","1978-098B","11081","7322.237","103.926","965.102","923.102"
"GENERATED VIA SPACETRACK.ORG API","JSPOC","2861","SECOR 9 (EGRS 9)","PAYLOAD","U","67065A","2016-01-14 17:26:17","839104","8.36652653","0.0073167","90.1748","303.1944","112.7212","248.1378","0","999","48268","0.019392","3.3e-07","0","1980707","0 SECOR 9 (EGRS 9)","1  2861U 67065A   16014.72659536 +.00000033 +00000-0 +19392-1 0  9997","2  2861 090.1748 303.1944 0073167 112.7212 248.1378 08.36652653482687","1967-065A","2861","10249.555","172.114","3946.413","3796.427"
"GENERATED VIA SPACETRACK.ORG API","JSPOC","26638","ASTRA 2D","PAYLOAD","U","00081A","2016-01-14 17:26:32","775072","1.00271285","0.0002049","2.65","72.604","221.2417","138.6059","0","999","1474","0","6.2e-07","0","1980707","0 ASTRA 2D","1 26638U 00081A   16014.72676823 +.00000062 +00000-0 +00000-0 0  9995","2 26638 002.6500 072.6040 0002049 221.2417 138.6059 01.00271285014747","2000-081A","26638","42164.872","1436.104","35795.376","35778.097"
"GENERATED VIA SPACETRACK.ORG API","JSPOC","21087","INFORMATOR 1","PAYLOAD","U","91006A","2016-01-14 17:26:45","591648","13.75224332","0.0036396","82.9426","66.1523","61.9677","77.2691","0","999","25260","3.5449e-05","5e-07","0","1980294","0 INFORMATOR 1","1 21087U 91006A   16014.72691657  .00000050  00000-0  35449-4 0  9993","2 21087  82.9426  66.1523 0036396  61.9677  77.2691 13.75224332252606","1991-006A","21087","7359.011","104.710","1007.660","954.092"
